COSMOS 2361 [-]         
1 25590U 98076A   22290.64372957  .00000074  00000+0  63902-4 0  9993
2 25590  82.9300 115.8504 0030549 227.3561 203.1301 13.73030703193006
COSMOS 2378 [-]         
1 26818U 01023A   22290.23153325 -.00000162  00000+0 -18791-3 0  9999
2 26818  82.9248 133.9775 0032915 173.6531 186.4881 13.73977274 71038
COSMOS 2389 [-]         
1 27436U 02026A   22290.84067426  .00000071  00000+0  58160-4 0  9995
2 27436  82.9485  79.4323 0047116  35.6435  71.6174 13.74984182 23180
COSMOS 2398 [-]         
1 27818U 03023A   22290.25743519  .00000086  00000+0  77646-4 0  9992
2 27818  82.9516  41.8522 0032667  73.9490 286.5298 13.72219638970094
COSMOS 2407 [+]         
1 28380U 04028A   22290.15002030 -.00000117  00000+0 -13587-3 0  9998
2 28380  82.9663 346.3372 0040075  38.8662 321.5406 13.76123019915890
COSMOS 2414 [+]         
1 28521U 05002A   22291.11615330  .00000088  00000+0  60879-4 0  9990
2 28521  82.9505 335.5019 0040310 182.3142 177.7841 13.87669563898569
COSMOS 2429 [-]         
1 32052U 07038A   22290.77267825  .00000066  00000+0  52716-4 0  9995
2 32052  82.9762 112.2003 0038774  14.6669 345.5602 13.74971868757804
COSMOS 2454 [-]         
1 35635U 09039A   22291.15020677  .00000060  00000+0  35624-4 0  9996
2 35635  82.9550 321.5941 0020512 125.2214 340.2665 13.89697768671739
COSMOS 2463 [+]         
1 36519U 10017A   22291.09030271  .00000044  00000+0  32482-4 0  9991
2 36519  82.9603 152.7492 0035002 241.9700 271.3715 13.71482220624599
